{
    "links": {
        "self": "http://www.neowsapp.com/rest/v1/neo/3599871?api_key=iIulBulltgU6a56xZRHN4H3l9WmuAYTsLGpBGhQ2"
    },
    "id": "3599871",
    "neo_reference_id": "3599871",
    "name": "(2012 DQ32)",
    "designation": "2012 DQ32",
    "nasa_jpl_url": "http://ssd.jpl.nasa.gov/sbdb.cgi?sstr=3599871",
    "absolute_magnitude_h": 23.7,
    "estimated_diameter": {
        "kilometers": {
            "estimated_diameter_min": 0.0483676488,
            "estimated_diameter_max": 0.1081533507
        },
        "meters": {
            "estimated_diameter_min": 48.3676488219,
            "estimated_diameter_max": 108.1533506775
        },
        "miles": {
            "estimated_diameter_min": 0.0300542543,
            "estimated_diameter_max": 0.0672033557
        },
        "feet": {
            "estimated_diameter_min": 158.6865169607,
            "estimated_diameter_max": 354.8338390368
        }
    },
    "is_potentially_hazardous_asteroid": false,
    "close_approach_data": [
        {
            "close_approach_date": "2009-03-23",
            "close_approach_date_full": "2009-Mar-23 01:53",
            "epoch_date_close_approach": 1237773180000,
            "relative_velocity": {
                "kilometers_per_second": "17.0672951757",
                "kilometers_per_hour": "61442.2626323407",
                "miles_per_hour": "38177.8325784119"
            },
            "miss_distance": {
                "astronomical": "0.3717410871",
                "lunar": "144.6072828819",
                "kilometers": "55611674.821644477",
                "miles": "34555492.3746967026"
            },
            "orbiting_body": "Earth"
        },
        {
            "close_approach_date": "2012-02-19",
            "close_approach_date_full": "2012-Feb-19 02:12",
            "epoch_date_close_approach": 1329617520000,
            "relative_velocity": {
                "kilometers_per_second": "7.2436268945",
                "kilometers_per_hour": "26077.0568202678",
                "miles_per_hour": "16203.2690003492"
            },
            "miss_distance": {
                "astronomical": "0.0612615477",
                "lunar": "23.8307420553",
                "kilometers": "9164597.048823399",
                "miles": "5694616.5432609462"
            },
            "orbiting_body": "Earth"
        },
        {
            "close_approach_date": "2015-01-02",
            "close_approach_date_full": "2015-Jan-02 01:13",
            "epoch_date_close_approach": 1420161180000,
            "relative_velocity": {
                "kilometers_per_second": "12.3340393323",
                "kilometers_per_hour": "44402.5415962822",
                "miles_per_hour": "27590.0125824232"
            },
            "miss_distance": {
                "astronomical": "0.2411935036",
                "lunar": "93.8242729004",
                "kilometers": "36082034.396397332",
                "miles": "22420336.5291019016"
            },
            "orbiting_body": "Earth"
        }
    ],
    "orbital_data": {
        "orbit_id": "12",
        "orbit_determination_date": "2017-04-06 08:50:48",
        "first_observation_date": "2012-02-25",
        "last_observation_date": "2012-03-29",
        "data_arc_in_days": 33,
        "observations_used": 78,
        "orbit_uncertainty": "6",
        "minimum_orbit_intersection": ".0481225",
        "jupiter_tisserand_invariant": "3.614",
        "epoch_osculation": "2459000.5",
        "eccentricity": ".4995194607465201",
        "semi_major_axis": "2.056007989820733",
        "inclination": "5.937684119941599",
        "ascending_node_longitude": "151.1582841618763",
        "orbital_period": "1076.801430720971",
        "perihelion_distance": "1.028991987454944",
        "perihelion_argument": "343.0258512287148",
        "aphelion_distance": "3.083023992186522",
        "perihelion_time": "2459197.224786885768",
        "mean_anomaly": "294.2302849361387",
        "mean_motion": ".3343234785256204",
        "equinox": "J2000",
        "orbit_class": {
            "orbit_class_type": "AMO",
            "orbit_class_description": "Near-Earth asteroid orbits similar to that of 1221 Amor",
            "orbit_class_range": "1.017 AU < q (perihelion) < 1.3 AU"
        }
    },
    "is_sentry_object": false
}